NORAD_CAT_ID,OBJECT_NAME,OBJECT_TYPE,EPOCH,MEAN_MOTION,ECCENTRICITY,INCLINATION,RA_OF_ASC_NODE,ARG_OF_PERICENTER,MEAN_ANOMALY,BSTAR,MEAN_MOTION_DOT,MEAN_MOTION_DDOT,TLE_LINE0,TLE_LINE1,TLE_LINE2,SEMIMAJOR_AXIS,PERIOD,APOGEE,PERIGEE,DECAYED
56455.0,STARLINK-5987,PAYLOAD,2024-04-14 08:45:11,14.98329494,0.0003018,69.9989,95.0669,270.0665,90.0149,-1.2524e-05,-2.42e-06,0.0,0 STARLINK-5987,1 56455U 23064H   24105.36471703 -.00000242  00000-0 -12524-4 0  9991,2 56455  69.9989  95.0669 0003018 270.0665  90.0149 14.98329494 51248,6950.194,96.107,574.157,569.962,0.0
56455.0,STARLINK-5987,PAYLOAD,2024-04-15 03:58:48,14.98328681,0.000291,69.9994,93.0479,268.0502,92.0324,-7.6984e-06,-1.85e-06,0.0,0 STARLINK-5987,1 56455U 23064H   24106.16583694 -.00000185  00000-0 -76984-5 0  9990,2 56455  69.9994  93.0479 0002910 268.0502  92.0324 14.98328681 51725,6950.197,96.107,574.084,570.039,0.0
56455.0,STARLINK-5987,PAYLOAD,2024-04-15 08:47:12,14.98332671,0.0002895,69.9994,92.5426,271.784,88.2988,3.6777e-05,3.46e-06,0.0,0 STARLINK-5987,1 56455U 23064H   24106.36611281  .00000346  00000-0  36777-4 0  9998,2 56455  69.9994  92.5426 0002895 271.7840  88.2988 14.98332671 51399,6950.185,96.107,574.062,570.038,0.0
56455.0,STARLINK-5987,PAYLOAD,2024-04-16 04:00:49,14.983297,0.0002893,69.9994,90.5224,270.9618,89.1209,2.8625e-05,2.49e-06,0.0,0 STARLINK-5987,1 56455U 23064H   24107.16723418  .00000249  00000-0  28625-4 0  9998,2 56455  69.9994  90.5224 0002893 270.9618  89.1209 14.98329700 51873,6950.194,96.107,574.07,570.048,0.0
56455.0,STARLINK-5987,PAYLOAD,2024-04-16 08:49:12,14.98333042,0.0002921,69.9993,90.0169,270.6493,89.4331,6.9977e-05,7.42e-06,0.0,0 STARLINK-5987,1 56455U 23064H   24107.36751130  .00000742  00000-0  69977-4 0  9995,2 56455  69.9993  90.0169 0002921 270.6493  89.4331 14.98333042 51542,6950.183,96.107,574.079,570.018,0.0
56455.0,STARLINK-5987,PAYLOAD,2024-04-17 05:38:57,14.98335946,0.0002802,69.9995,87.8289,269.5871,90.4967,8.6962e-05,9.45e-06,0.0,0 STARLINK-5987,1 56455U 23064H   24108.23538715  .00000945  00000-0  86962-4 0  9992,2 56455  69.9995  87.8289 0002802 269.5871  90.4967 14.98335946 52033,6950.175,96.107,573.987,570.092,0.0
56455.0,STARLINK-5987,PAYLOAD,2024-04-17 08:51:13,14.98342874,0.0002549,69.9999,87.493,261.8411,98.2459,0.00012142,1.357e-05,0.0,0 STARLINK-5987,1 56455U 23064H   24108.36890081  .00001357  00000-0  12142-3 0  9999,2 56455  69.9999  87.4930 0002549 261.8411  98.2459 14.98342874 52051,6950.153,96.106,573.79,570.246,0.0
56455.0,STARLINK-5987,PAYLOAD,2024-04-18 04:04:51,14.9832253,0.0002645,70.0003,85.4738,263.0419,97.0439,-7.5034e-05,-9.88e-06,0.0,0 STARLINK-5987,1 56455U 23064H   24109.17003921 -.00000988  00000-0 -75034-4 0  9999,2 56455  70.0003  85.4738 0002645 263.0419  97.0439 14.98322530 52178,6950.216,96.107,573.919,570.243,0.0
56455.0,STARLINK-5987,PAYLOAD,2024-04-18 08:53:15,14.9832273,0.0002674,69.9999,84.9685,266.0845,94.0009,-8.6402e-05,-1.124e-05,0.0,0 STARLINK-5987,1 56455U 23064H   24109.37032067 -.00001124  00000-0 -86402-4 0  9998,2 56455  69.9999  84.9685 0002674 266.0845  94.0009 14.98322730 51847,6950.215,96.107,573.939,570.222,0.0
56455.0,STARLINK-5987,PAYLOAD,2024-04-19 04:06:52,14.98331227,0.0002797,69.9999,82.9487,266.436,93.648,-5.3229e-05,-7.28e-06,0.0,0 STARLINK-5987,1 56455U 23064H   24110.17143559 -.00000728  00000-0 -53229-4 0  9997,2 56455  69.9999  82.9487 0002797 266.4360  93.6480 14.98331227 52320,6950.189,96.107,573.998,570.11,0.0
56455.0,STARLINK-5987,PAYLOAD,2024-04-19 07:19:07,14.98336146,0.0002693,70.0003,82.6137,254.3011,105.7851,-2.0045e-05,-3.32e-06,0.0,0 STARLINK-5987,1 56455U 23064H   24110.30495054 -.00000332  00000-0 -20045-4 0  9993,2 56455  70.0003  82.6137 0002693 254.3011 105.7851 14.98336146 51985,6950.174,96.107,573.911,570.167,0.0
56455.0,STARLINK-5987,PAYLOAD,2024-04-19 21:44:20,14.98327533,0.000269,70.0002,81.0976,260.629,99.4565,0.00013016,1.46e-05,0.0,0 STARLINK-5987,1 56455U 23064H   24110.90579175  .00001460  00000-0  13016-3 0  9996,2 56455  70.0002  81.0976 0002690 260.6290  99.4565 14.98327533 52076,6950.201,96.107,573.935,570.196,0.0
56455.0,STARLINK-5987,PAYLOAD,2024-04-20 04:08:52,14.98329705,0.0002629,70.0002,80.4243,258.8647,101.2217,0.00015047,1.703e-05,0.0,0 STARLINK-5987,1 56455U 23064H   24111.17283013  .00001703  00000-0  15047-3 0  9995,2 56455  70.0002  80.4243 0002629 258.8647 101.2217 14.98329705 52476,6950.194,96.107,573.886,570.232,0.0
56455.0,STARLINK-5987,PAYLOAD,2024-04-20 07:21:08,14.9833524,0.0002525,70.0006,80.0884,252.7921,107.2961,0.00021336,2.454e-05,0.0,0 STARLINK-5987,1 56455U 23064H   24111.30634441  .00002454  00000-0  21336-3 0  9997,2 56455  70.0006  80.0884 0002525 252.7921 107.2961 14.98335240 52495,6950.177,96.107,573.797,570.287,0.0
56455.0,STARLINK-5987,PAYLOAD,2024-04-20 21:46:22,14.98319771,0.0002247,70.0049,78.5762,190.6185,169.4927,1.7989e-05,1.22e-06,0.0,0 STARLINK-5987,1 56455U 23064H   24111.90720264  .00000122  00000-0  17989-4 0  9992,2 56455  70.0049  78.5762 0002247 190.6185 169.4927 14.98319771 52226,6950.225,96.108,573.651,570.528,0.0
56455.0,STARLINK-5987,PAYLOAD,2024-04-21 04:10:55,14.98312349,0.0002731,70.0005,77.9005,264.7318,95.3529,-0.00019614,-2.431e-05,0.0,0 STARLINK-5987,1 56455U 23064H   24112.17425597 -.00002431  00000-0 -19614-3 0  9996,2 56455  70.0005  77.9005 0002731 264.7318  95.3529 14.98312349 52623,6950.247,96.108,574.011,570.214,0.0
56455.0,STARLINK-5987,PAYLOAD,2024-04-21 07:23:12,14.98310598,0.0002787,70.0003,77.5635,266.6455,93.4386,-0.00020718,-2.563e-05,0.0,0 STARLINK-5987,1 56455U 23064H   24112.30777895 -.00002563  00000-0 -20718-3 0  9995,2 56455  70.0003  77.5635 0002787 266.6455  93.4386 14.98310598 52286,6950.253,96.108,574.055,570.181,0.0
56455.0,STARLINK-5987,PAYLOAD,2024-04-21 21:48:23,14.98326063,0.0003038,69.9988,76.0437,269.6848,90.3963,-8.1825e-05,-1.069e-05,0.0,0 STARLINK-5987,1 56455U 23064H   24112.90860921 -.00001069  00000-0 -81825-4 0  9991,2 56455  69.9988  76.0437 0003038 269.6848  90.3963 14.98326063 52379,6950.205,96.107,574.182,569.959,0.0
56455.0,STARLINK-5987,PAYLOAD,2024-04-22 04:12:55,14.98332981,0.0002275,70.0008,75.3719,264.5556,95.5343,1.533e-05,9e-07,0.0,0 STARLINK-5987,1 56455U 23064H   24113.17564394  .00000090  00000-0  15330-4 0  9995,2 56455  70.0008  75.3719 0002275 264.5556  95.5343 14.98332981 52771,6950.184,96.107,573.63,570.468,0.0
56455.0,STARLINK-5987,PAYLOAD,2024-04-22 07:25:11,14.98336949,0.0001837,70.0021,75.0373,260.3776,99.7176,8.1119e-05,8.75e-06,0.0,0 STARLINK-5987,1 56455U 23064H   24113.30915918  .00000875  00000-0  81119-4 0  9991,2 56455  70.0021  75.0373 0001837 260.3776  99.7176 14.98336949 52431,6950.171,96.107,573.313,570.76,0.0
56455.0,STARLINK-5987,PAYLOAD,2024-04-22 21:50:24,14.98319102,0.0002149,70.0015,73.5223,269.0638,91.0275,0.00034457,4.02e-05,0.0,0 STARLINK-5987,1 56455U 23064H   24113.91000238  .00004020  00000-0  34457-3 0  9996,2 56455  70.0015  73.5223 0002149 269.0638  91.0275 14.98319102 52528,6950.227,96.108,573.585,570.598,0.0
56455.0,STARLINK-5987,PAYLOAD,2024-04-23 04:14:56,14.98319729,0.0002386,70.0015,72.8476,271.5626,88.526,0.0003193,3.718e-05,0.0,0 STARLINK-5987,1 56455U 23064H   24114.17704390  .00003718  00000-0  31930-3 0  9991,2 56455  70.0015  72.8476 0002386 271.5626  88.5260 14.98319729 52922,6950.225,96.108,573.748,570.431,0.0
56455.0,STARLINK-5987,PAYLOAD,2024-04-23 07:27:12,14.98323897,0.0002372,70.0019,72.5135,258.6529,101.4364,0.00031772,3.699e-05,0.0,0 STARLINK-5987,1 56455U 23064H   24114.31056094  .00003699  00000-0  31772-3 0  9990,2 56455  70.0019  72.5135 0002372 258.6529 101.4364 14.98323897 52581,6950.212,96.107,573.725,570.428,0.0
56455.0,STARLINK-5987,PAYLOAD,2024-04-23 21:52:24,14.98339668,0.0002144,70.0021,70.9985,243.581,116.5129,5.1129e-06,-3.2e-07,0.0,0 STARLINK-5987,1 56455U 23064H   24114.91139825 -.00000032  00000-0  51129-5 0  9999,2 56455  70.0021  70.9985 0002144 243.5810 116.5129 14.98339668 52671,6950.163,96.106,573.518,570.538,0.0
56455.0,STARLINK-5987,PAYLOAD,2024-04-24 02:40:48,14.98338771,0.000217,70.002,70.4929,248.0547,112.0381,7.7975e-06,0.0,0.0,0 STARLINK-5987,1 56455U 23064H   24115.11167749  .00000000  00000-0  77975-5 0  9999,2 56455  70.0020  70.4929 0002170 248.0547 112.0381 14.98338771 53068,6950.166,96.106,573.539,570.523,0.0
56455.0,STARLINK-5987,PAYLOAD,2024-04-24 07:29:12,14.98339888,0.00021,70.0021,69.9876,241.8049,118.2898,2.6807e-05,2.27e-06,0.0,0 STARLINK-5987,1 56455U 23064H   24115.31195508  .00000227  00000-0  26807-4 0  9993,2 56455  70.0021  69.9876 0002100 241.8049 118.2898 14.98339888 52738,6950.162,96.106,573.487,570.568,0.0
56455.0,STARLINK-5987,PAYLOAD,2024-04-24 21:54:25,14.98327865,0.0002118,70.0039,68.4722,238.1639,121.9315,5.5746e-05,5.72e-06,0.0,0 STARLINK-5987,1 56455U 23064H   24115.91279841  .00000572  00000-0  55746-4 0  9999,2 56455  70.0039  68.4722 0002118 238.1639 121.9315 14.98327865 52821,6950.199,96.107,573.537,570.592,0.0
56455.0,STARLINK-5987,PAYLOAD,2024-04-25 04:18:58,14.98330763,0.0002475,70.0016,67.7994,252.7989,107.29,-7.2966e-05,-9.63e-06,0.0,0 STARLINK-5987,1 56455U 23064H   24116.17984041 -.00000963  00000-0 -72966-4 0  9992,2 56455  70.0016  67.7994 0002475 252.7989 107.2900 14.98330763 53228,6950.191,96.107,573.776,570.335,0.0
56455.0,STARLINK-5987,PAYLOAD,2024-04-25 05:55:06,14.98330939,0.000241,70.0022,67.6319,245.0088,115.0821,-5.7583e-05,-7.8e-06,0.0,0 STARLINK-5987,1 56455U 23064H   24116.24659933 -.00000780  00000-0 -57583-4 0  9994,2 56455  70.0022  67.6319 0002410 245.0088 115.0821 14.98330939 52873,6950.19,96.107,573.73,570.38,0.0
56455.0,STARLINK-5987,PAYLOAD,2024-04-25 21:56:26,14.98333195,0.0002817,70.001,65.9485,258.3821,101.7021,-6.8613e-05,-9.12e-06,0.0,0 STARLINK-5987,1 56455U 23064H   24116.91419755 -.00000912  00000-0 -68613-4 0  9997,2 56455  70.0010  65.9485 0002817 258.3821 101.7021 14.98333195 52970,6950.183,96.107,574.006,570.09,0.0
